{
  "type": "FeatureCollection",
  "features": [
    {
      "type": "Feature",
      "properties": {
        "norad_id": 66604,
        "name": "STARLINK-35977",
        "group": "last-30-days",
        "lat": 12.924469675803474,
        "lon": 125.72830555797721,
        "alt_km": 442.14106503803396,
        "timestamp": "2025-12-26T18:39:30.995418+00:00",
        "meta_object_name": "STARLINK-35977",
        "meta_object_id": "2025-270S",
        "meta_epoch": "2025-12-26T09:14:27.179520",
        "meta_mean_motion": 15.40733297,
        "meta_eccentricity": 0.00021598,
        "meta_inclination": 42.9992,
        "meta_ra_of_asc_node": 113.7335,
        "meta_arg_of_pericenter": 271.6596,
        "meta_mean_anomaly": 88.4013,
        "meta_ephemeris_type": 0,
        "meta_classification_type": "U",
        "meta_norad_cat_id": 66604,
        "meta_element_set_no": 999,
        "meta_rev_at_epoch": 645,
        "meta_bstar": 0.0012687384,
        "meta_mean_motion_dot": 0.00053125,
        "meta_mean_motion_ddot": 0,
        "tle_line1": "1 66604U 25270S   25360.38503680  .00053125  00000+0  12687-2 0  9998",
        "tle_line2": "2 66604  42.9992 113.7335 0002159 271.6596  88.4013 15.40733297  6455"
      },
      "geometry": {
        "type": "Point",
        "coordinates": [
          125.72830555797721,
          12.924469675803474
        ]
      }
    },
    {
      "type": "Feature",
      "properties": {
        "norad_id": 66605,
        "name": "STARLINK-36052",
        "group": "last-30-days",
        "lat": 42.85983870922259,
        "lon": -153.45225108593323,
        "alt_km": 438.3612397582101,
        "timestamp": "2025-12-26T18:39:30.995430+00:00",
        "meta_object_name": "STARLINK-36052",
        "meta_object_id": "2025-270T",
        "meta_epoch": "2025-12-26T08:55:05.833920",
        "meta_mean_motion": 15.40726118,
        "meta_eccentricity": 0.00019411,
        "meta_inclination": 43.0005,
        "meta_ra_of_asc_node": 113.6312,
        "meta_arg_of_pericenter": 272.9658,
        "meta_mean_anomaly": 87.0977,
        "meta_ephemeris_type": 0,
        "meta_classification_type": "U",
        "meta_norad_cat_id": 66605,
        "meta_element_set_no": 999,
        "meta_rev_at_epoch": 645,
        "meta_bstar": 0.0012180745,
        "meta_mean_motion_dot": 0.00050964,
        "meta_mean_motion_ddot": 0,
        "tle_line1": "1 66605U 25270T   25360.37159530  .00050964  00000+0  12181-2 0  9996",
        "tle_line2": "2 66605  43.0005 113.6312 0001941 272.9658  87.0977 15.40726118  6456"
      },
      "geometry": {
        "type": "Point",
        "coordinates": [
          -153.45225108593323,
          42.85983870922259
        ]
      }
    },
    {
      "type": "Feature",
      "properties": {
        "norad_id": 66606,
        "name": "STARLINK-36063",
        "group": "last-30-days",
        "lat": -0.627958825916021,
        "lon": -68.24929131887684,
        "alt_km": 444.0242528975041,
        "timestamp": "2025-12-26T18:39:30.995441+00:00",
        "meta_object_name": "STARLINK-36063",
        "meta_object_id": "2025-270U",
        "meta_epoch": "2025-12-26T14:45:55.749312",
        "meta_mean_motion": 15.40708054,
        "meta_eccentricity": 0.00021332,
        "meta_inclination": 43.0001,
        "meta_ra_of_asc_node": 112.0118,
        "meta_arg_of_pericenter": 277.3138,
        "meta_mean_anomaly": 82.7476,
        "meta_ephemeris_type": 0,
        "meta_classification_type": "U",
        "meta_norad_cat_id": 66606,
        "meta_element_set_no": 999,
        "meta_rev_at_epoch": 649,
        "meta_bstar": 0.0010041202,
        "meta_mean_motion_dot": 0.00041884,
        "meta_mean_motion_ddot": 0,
        "tle_line1": "1 66606U 25270U   25360.61522858  .00041884  00000+0  10041-2 0  9995",
        "tle_line2": "2 66606  43.0001 112.0118 0002133 277.3138  82.7476 15.40708054  6495"
      },
      "geometry": {
        "type": "Point",
        "coordinates": [
          -68.24929131887684,
          -0.627958825916021
        ]
      }
    },
    {
      "type": "Feature",
      "properties": {
        "norad_id": 66607,
        "name": "STARLINK-35993",
        "group": "last-30-days",
        "lat": 40.88189367848941,
        "lon": -136.9888553214367,
        "alt_km": 439.08676836083396,
        "timestamp": "2025-12-26T18:39:30.995452+00:00",
        "meta_object_name": "STARLINK-35993",
        "meta_object_id": "2025-270V",
        "meta_epoch": "2025-12-26T15:05:16.667232",
        "meta_mean_motion": 15.40730597,
        "meta_eccentricity": 0.00025301,
        "meta_inclination": 43.0049,
        "meta_ra_of_asc_node": 112.1205,
        "meta_arg_of_pericenter": 272.959,
        "meta_mean_anomaly": 87.0977,
        "meta_ephemeris_type": 0,
        "meta_classification_type": "U",
        "meta_norad_cat_id": 66607,
        "meta_element_set_no": 999,
        "meta_rev_at_epoch": 639,
        "meta_bstar": 0.0014337292,
        "meta_mean_motion_dot": 0.00060124,
        "meta_mean_motion_ddot": 0,
        "tle_line1": "1 66607U 25270V   25360.62866513  .00060124  00000+0  14337-2 0  9996",
        "tle_line2": "2 66607  43.0049 112.1205 0002530 272.9590  87.0977 15.40730597  6390"
      },
      "geometry": {
        "type": "Point",
        "coordinates": [
          -136.9888553214367,
          40.88189367848941
        ]
      }
    },
    {
      "type": "Feature",
      "properties": {
        "norad_id": 66608,
        "name": "STARLINK-36036",
        "group": "last-30-days",
        "lat": -9.047458295418242,
        "lon": -59.11441120212638,
        "alt_km": 444.8715854452548,
        "timestamp": "2025-12-26T18:39:30.995462+00:00",
        "meta_object_name": "STARLINK-36036",
        "meta_object_id": "2025-270W",
        "meta_epoch": "2025-12-26T00:00:02.000160",
        "meta_mean_motion": 15.40691202,
        "meta_eccentricity": 0.00015514,
        "meta_inclination": 43.0003,
        "meta_ra_of_asc_node": 115.5277,
        "meta_arg_of_pericenter": 272.8529,
        "meta_mean_anomaly": 283.3616,
        "meta_ephemeris_type": 0,
        "meta_classification_type": "U",
        "meta_norad_cat_id": 66608,
        "meta_element_set_no": 999,
        "meta_rev_at_epoch": 604,
        "meta_bstar": -0.00015885025,
        "meta_mean_motion_dot": -6.931e-05,
        "meta_mean_motion_ddot": 0,
        "tle_line1": "1 66608U 25270W   25360.00002315 -.00006931  00000+0 -15885-3 0  9999",
        "tle_line2": "2 66608  43.0003 115.5277 0001551 272.8529 283.3616 15.40691202  6042"
      },
      "geometry": {
        "type": "Point",
        "coordinates": [
          -59.11441120212638,
          -9.047458295418242
        ]
      }
    },
    {
      "type": "Feature",
      "properties": {
        "norad_id": 66609,
        "name": "STARLINK-36034",
        "group": "last-30-days",
        "lat": -24.995336320522405,
        "lon": -38.99181985095429,
        "alt_km": 445.5290750680806,
        "timestamp": "2025-12-26T18:39:30.995472+00:00",
        "meta_object_name": "STARLINK-36034",
        "meta_object_id": "2025-270X",
        "meta_epoch": "2025-12-26T08:22:50.303712",
        "meta_mean_motion": 15.4073362,
        "meta_eccentricity": 0.00023885,
        "meta_inclination": 43.0009,
        "meta_ra_of_asc_node": 113.4578,
        "meta_arg_of_pericenter": 281.9385,
        "meta_mean_anomaly": 78.1204,
        "meta_ephemeris_type": 0,
        "meta_classification_type": "U",
        "meta_norad_cat_id": 66609,
        "meta_element_set_no": 999,
        "meta_rev_at_epoch": 629,
        "meta_bstar": 0.0011610143,
        "meta_mean_motion_dot": 0.0004856,
        "meta_mean_motion_ddot": 0,
        "tle_line1": "1 66609U 25270X   25360.34919333  .00048560  00000+0  11610-2 0  9997",
        "tle_line2": "2 66609  43.0009 113.4578 0002388 281.9385  78.1204 15.40733620  6291"
      },
      "geometry": {
        "type": "Point",
        "coordinates": [
          -38.99181985095429,
          -24.995336320522405
        ]
      }
    },
    {
      "type": "Feature",
      "properties": {
        "norad_id": 66610,
        "name": "STARLINK-35680",
        "group": "last-30-days",
        "lat": 30.885568441603404,
        "lon": -108.73814075188285,
        "alt_km": 439.94659722347296,
        "timestamp": "2025-12-26T18:39:30.995482+00:00",
        "meta_object_name": "STARLINK-35680",
        "meta_object_id": "2025-270Y",
        "meta_epoch": "2025-12-26T14:58:49.990944",
        "meta_mean_motion": 15.40709304,
        "meta_eccentricity": 0.00015601,
        "meta_inclination": 42.9985,
        "meta_ra_of_asc_node": 112.0805,
        "meta_arg_of_pericenter": 278.6419,
        "meta_mean_anomaly": 81.4261,
        "meta_ephemeris_type": 0,
        "meta_classification_type": "U",
        "meta_norad_cat_id": 66610,
        "meta_element_set_no": 999,
        "meta_rev_at_epoch": 660,
        "meta_bstar": 0.0016796828,
        "meta_mean_motion_dot": 0.00070534,
        "meta_mean_motion_ddot": 0,
        "tle_line1": "1 66610U 25270Y   25360.62418971  .00070534  00000+0  16797-2 0  9999",
        "tle_line2": "2 66610  42.9985 112.0805 0001560 278.6419  81.4261 15.40709304  6601"
      },
      "geometry": {
        "type": "Point",
        "coordinates": [
          -108.73814075188285,
          30.885568441603404
        ]
      }
    }
  ]
}